NORAD_CAT_ID,OBJECT_NAME,OBJECT_TYPE,EPOCH,MEAN_MOTION,ECCENTRICITY,INCLINATION,RA_OF_ASC_NODE,ARG_OF_PERICENTER,MEAN_ANOMALY,BSTAR,MEAN_MOTION_DOT,MEAN_MOTION_DDOT,TLE_LINE0,TLE_LINE1,TLE_LINE2,SEMIMAJOR_AXIS,PERIOD,APOGEE,PERIGEE,DECAYED
53170.0,STARLINK-4095,PAYLOAD,2023-09-25 03:48:56,15.0886061,0.0001503,53.2158,223.7533,105.9234,254.1923,0.00084625,0.00013213,0.0,0 STARLINK-4095,1 53170U 22083AQ  23268.15898751  .00013213  00000-0  84625-3 0  9994,2 53170  53.2158 223.7533 0001503 105.9234 254.1923 15.08860610 66081,6917.817,95.436,540.722,538.643,0.0
53170.0,STARLINK-4095,PAYLOAD,2023-09-25 21:18:10,15.08854998,0.0001739,53.2164,220.4863,97.1507,262.9683,0.00074875,0.00011653,0.0,0 STARLINK-4095,1 53170U 22083AQ  23268.88762456  .00011653  00000-0  74875-3 0  9998,2 53170  53.2164 220.4863 0001739  97.1507 262.9683 15.08854998 66198,6917.835,95.437,540.903,538.497,0.0
53170.0,STARLINK-4095,PAYLOAD,2023-09-26 02:04:19,15.08858088,0.0001694,53.217,219.5943,108.2066,251.911,0.00047798,7.331e-05,0.0,0 STARLINK-4095,1 53170U 22083AQ  23269.08634062  .00007331  00000-0  47798-3 0  9994,2 53170  53.2170 219.5943 0001694 108.2066 251.9110 15.08858088 66857,6917.825,95.436,540.862,538.518,0.0
53170.0,STARLINK-4095,PAYLOAD,2023-09-27 01:55:07,15.08836974,0.0001745,53.2162,215.1269,124.0,236.1158,2.7741e-05,1.53e-06,0.0,0 STARLINK-4095,1 53170U 22083AQ  23270.07994533  .00000153  00000-0  27741-4 0  9999,2 53170  53.2162 215.1269 0001745 124.0000 236.1158 15.08836974 67007,6917.89,95.438,540.962,538.547,0.0
53170.0,STARLINK-4095,PAYLOAD,2023-09-27 06:41:16,15.08834638,0.0001341,53.216,214.2395,85.5857,274.5289,9.5365e-06,-1.36e-06,0.0,0 STARLINK-4095,1 53170U 22083AQ  23270.27866883 -.00000136  00000-0  95365-5 0  9997,2 53170  53.2160 214.2395 0001341  85.5857 274.5289 15.08834638 66407,6917.897,95.438,540.689,538.834,0.0
53170.0,STARLINK-4095,PAYLOAD,2023-09-27 13:02:49,15.08826682,0.0001049,53.2146,213.0474,71.975,288.1356,-0.00011289,-2.083e-05,0.0,0 STARLINK-4095,1 53170U 22083AQ  23270.54363381 -.00002083  00000-0 -11289-3 0  9997,2 53170  53.2146 213.0474 0001049  71.9750 288.1356 15.08826682 67072,6917.921,95.438,540.512,539.06,0.0
53170.0,STARLINK-4095,PAYLOAD,2023-09-28 01:45:55,15.08827087,0.000119,53.2164,210.672,99.584,260.5286,-4.2751e-05,-9.68e-06,0.0,0 STARLINK-4095,1 53170U 22083AQ  23271.07355722 -.00000968  00000-0 -42751-4 0  9995,2 53170  53.2164 210.6720 0001190  99.5840 260.5286 15.08827087 66527,6917.92,95.438,540.608,538.962,0.0
53170.0,STARLINK-4095,PAYLOAD,2023-09-28 17:39:47,15.08838084,0.0001064,53.2166,207.698,91.9502,268.1612,0.000347,5.239e-05,0.0,0 STARLINK-4095,1 53170U 22083AQ  23271.73596176  .00005239  00000-0  34700-3 0  9996,2 53170  53.2166 207.6980 0001064  91.9502 268.1612 15.08838084 67251,6917.886,95.438,540.487,539.015,0.0
53170.0,STARLINK-4095,PAYLOAD,2023-09-28 19:15:10,15.0883964,0.0001056,53.2164,207.401,95.9999,264.1113,0.00042538,6.488e-05,0.0,0 STARLINK-4095,1 53170U 22083AQ  23271.80220215  .00006488  00000-0  42538-3 0  9997,2 53170  53.2164 207.4010 0001056  95.9999 264.1113 15.08839640 66638,6917.881,95.438,540.477,539.016,0.0
53170.0,STARLINK-4095,PAYLOAD,2023-09-29 03:12:05,15.08852495,0.0001076,53.2166,205.9143,91.2298,268.8818,0.00072575,0.00011285,0.0,0 STARLINK-4095,1 53170U 22083AQ  23272.13340072  .00011285  00000-0  72575-3 0  9993,2 53170  53.2166 205.9143 0001076  91.2298 268.8818 15.08852495 67315,6917.842,95.437,540.452,538.963,0.0
53170.0,STARLINK-4095,PAYLOAD,2023-09-30 03:02:52,15.08865396,0.0001277,53.2165,201.4541,92.8765,267.2374,0.00063596,9.855e-05,0.0,0 STARLINK-4095,1 53170U 22083AQ  23273.12699167  .00009855  00000-0  63596-3 0  9998,2 53170  53.2165 201.4541 0001277  92.8765 267.2374 15.08865396 67466,6917.803,95.436,540.551,538.784,0.0
53170.0,STARLINK-4095,PAYLOAD,2023-09-30 18:56:44,15.08837197,0.0001767,53.2165,198.4799,78.0524,282.0666,-0.0001035,-1.935e-05,0.0,0 STARLINK-4095,1 53170U 22083AQ  23273.78939816 -.00001935  00000-0 -10350-3 0  9991,2 53170  53.2165 198.4799 0001767  78.0524 282.0666 15.08837197 67567,6917.889,95.438,540.976,538.532,0.0
53170.0,STARLINK-4095,PAYLOAD,2023-10-01 01:18:15,15.08857154,0.0001126,53.2165,197.2909,76.8639,283.2479,0.00037638,5.71e-05,0.0,0 STARLINK-4095,1 53170U 22083AQ  23274.05435103  .00005710  00000-0  37638-3 0  9993,2 53170  53.2165 197.2909 0001126  76.8639 283.2479 15.08857154 67604,6917.828,95.436,540.472,538.914,0.0
53170.0,STARLINK-4095,PAYLOAD,2023-10-01 12:25:57,15.08853674,0.0001674,53.2174,195.2095,87.2978,272.8206,0.0003219,4.841e-05,0.0,0 STARLINK-4095,1 53170U 22083AQ  23274.51803142  .00004841  00000-0  32190-3 0  9998,2 53170  53.2174 195.2095 0001674  87.2978 272.8206 15.08853674 67041,6917.839,95.437,540.862,538.546,0.0
53170.0,STARLINK-4095,PAYLOAD,2023-10-01 18:47:30,15.08842784,0.000243,53.2173,194.0199,88.3195,271.8075,0.00023366,3.433e-05,0.0,0 STARLINK-4095,1 53170U 22083AQ  23274.78299731  .00003433  00000-0  23366-3 0  9991,2 53170  53.2173 194.0199 0002430  88.3195 271.8075 15.08842784 67713,6917.872,95.437,541.418,538.056,0.0
53170.0,STARLINK-4095,PAYLOAD,2023-10-02 18:38:18,15.08831495,0.0001431,53.218,189.5627,74.3965,285.7185,0.00055528,8.558e-05,0.0,0 STARLINK-4095,1 53170U 22083AQ  23275.77660556  .00008558  00000-0  55528-3 0  9996,2 53170  53.2180 189.5627 0001431  74.3965 285.7185 15.08831495 67865,6917.906,95.438,540.761,538.781,0.0
53170.0,STARLINK-4095,PAYLOAD,2023-10-03 04:10:37,15.08859156,0.0001399,53.2164,187.7744,94.0964,266.0188,0.0013192,0.0002078,0.0,0 STARLINK-4095,1 53170U 22083AQ  23276.17404112  .00020780  00000-0  13192-2 0  9996,2 53170  53.2164 187.7744 0001399  94.0964 266.0188 15.08859156 67924,6917.822,95.436,540.655,538.719,0.0
53170.0,STARLINK-4095,PAYLOAD,2023-10-03 18:29:05,15.08851228,0.0001364,53.2164,185.0994,88.8849,271.2299,0.0015225,0.00024033,0.0,0 STARLINK-4095,1 53170U 22083AQ  23276.77020677  .00024033  00000-0  15225-2 0  9996,2 53170  53.2164 185.0994 0001364  88.8849 271.2299 15.08851228 68011,6917.846,95.437,540.655,538.767,0.0
53170.0,STARLINK-4095,PAYLOAD,2023-10-03 21:39:52,15.08855794,0.0001404,53.2164,184.5044,100.9184,259.1966,0.0017731,0.00028056,0.0,0 STARLINK-4095,1 53170U 22083AQ  23276.90268575  .00028056  00000-0  17731-2 0  9995,2 53170  53.2164 184.5044 0001404 100.9184 259.1966 15.08855794 67404,6917.832,95.437,540.668,538.726,0.0
53170.0,STARLINK-4095,PAYLOAD,2023-10-04 10:22:57,15.08846046,0.0001405,53.2152,182.1221,70.9891,289.1253,0.0013425,0.00021146,0.0,0 STARLINK-4095,1 53170U 22083AQ  23277.43260450  .00021146  00000-0  13425-2 0  9997,2 53170  53.2152 182.1221 0001405  70.9891 289.1253 15.08846046 68115,6917.862,95.437,540.699,538.755,0.0
53170.0,STARLINK-4095,PAYLOAD,2023-10-04 21:30:38,15.08855648,0.0001275,53.2151,180.0407,93.1562,266.9576,0.00051031,7.846e-05,0.0,0 STARLINK-4095,1 53170U 22083AQ  23277.89628001  .00007846  00000-0  51031-3 0  9994,2 53170  53.2151 180.0407 0001275  93.1562 266.9576 15.08855648 67550,6917.833,95.437,540.58,538.816,0.0
53170.0,STARLINK-4095,PAYLOAD,2023-10-05 10:13:43,15.08867942,0.0001114,53.216,177.6653,77.1303,282.9814,0.00093927,0.00014703,0.0,0 STARLINK-4095,1 53170U 22083AQ  23278.42619252  .00014703  00000-0  93927-3 0  9992,2 53170  53.2160 177.6653 0001114  77.1303 282.9814 15.08867942 68264,6917.795,95.436,540.431,538.889,0.0
53170.0,STARLINK-4095,PAYLOAD,2023-10-05 21:21:25,15.08835764,0.0001357,53.2161,175.5838,84.0878,276.0269,0.0010019,0.00015691,0.0,0 STARLINK-4095,1 53170U 22083AQ  23278.88988010  .00015691  00000-0  10019-2 0  9990,2 53170  53.2161 175.5838 0001357  84.0878 276.0269 15.08835764 67703,6917.893,95.438,540.697,538.82,0.0
53170.0,STARLINK-4095,PAYLOAD,2023-10-06 02:07:35,15.08845943,0.0001494,53.2157,174.6916,81.6562,278.4599,0.0020566,0.000326,0.0,0 STARLINK-4095,1 53170U 22083AQ  23279.08860042  .00032600  00000-0  20566-2 0  9994,2 53170  53.2157 174.6916 0001494  81.6562 278.4599 15.08845943 68365,6917.862,95.437,540.761,538.694,0.0
53170.0,STARLINK-4095,PAYLOAD,2023-10-06 10:04:31,15.08835046,0.000155,53.2154,173.2009,87.1548,272.9621,0.00084935,0.00013253,0.0,0 STARLINK-4095,1 53170U 22083AQ  23279.41980463  .00013253  00000-0  84935-3 0  9995,2 53170  53.2154 173.2009 0001550  87.1548 272.9621 15.08835046 68412,6917.896,95.438,540.833,538.688,0.0
53170.0,STARLINK-4095,PAYLOAD,2023-10-06 21:12:13,15.08841338,0.0001443,53.2154,171.124,101.4367,258.6787,0.0019372,0.00030678,0.0,0 STARLINK-4095,1 53170U 22083AQ  23279.88348940  .00030678  00000-0  19372-2 0  9996,2 53170  53.2154 171.1240 0001443 101.4367 258.6787 15.08841338 67858,6917.876,95.437,540.74,538.743,0.0
53170.0,STARLINK-4095,PAYLOAD,2023-10-07 09:55:18,15.08847246,0.0001515,53.2158,168.7449,87.0689,273.0476,0.0013149,0.00020705,0.0,0 STARLINK-4095,1 53170U 22083AQ  23280.41341095  .00020705  00000-0  13149-2 0  9997,2 53170  53.2158 168.7449 0001515  87.0689 273.0476 15.08847246 68560,6917.858,95.437,540.771,538.675,0.0
53170.0,STARLINK-4095,PAYLOAD,2023-10-07 16:16:51,15.08847582,0.000175,53.2151,167.5573,84.8826,275.2366,0.001079,0.0001693,0.0,0 STARLINK-4095,1 53170U 22083AQ  23280.67837223  .00016930  00000-0  10790-2 0  9992,2 53170  53.2151 167.5573 0001750  84.8826 275.2366 15.08847582 68607,6917.857,95.437,540.933,538.512,0.0
53170.0,STARLINK-4095,PAYLOAD,2023-10-07 22:38:23,15.08851418,0.0001412,53.2149,166.3661,92.6993,267.4161,0.00077846,0.00012127,0.0,0 STARLINK-4095,1 53170U 22083AQ  23280.94333010  .00012127  00000-0  77846-3 0  9997,2 53170  53.2149 166.3661 0001412  92.6993 267.4161 15.08851418 68010,6917.845,95.437,540.687,538.734,0.0
53170.0,STARLINK-4095,PAYLOAD,2023-10-08 09:46:05,15.08844215,0.00014,53.2172,164.283,87.3934,272.7218,0.00054131,8.338e-05,0.0,0 STARLINK-4095,1 53170U 22083AQ  23281.40701141  .00008338  00000-0  54131-3 0  9994,2 53170  53.2172 164.2830 0001400  87.3934 272.7218 15.08844215 68710,6917.868,95.437,540.701,538.764,0.0
